STARLINK-36568          
1 68017U 26040C   26068.91668981 -.01166094  46295-3 -17020-2 0  9994
2 68017  97.2778  17.1138 0000866  88.8464 267.6227 16.05236140  2465
STARLINK-37062          
1 68087U 26042U   26068.75002315 -.01283275  53961-3 -20607-2 0  9992
2 68087  53.1605 194.9724 0000750  60.9678   5.2255 16.02948582  2067
