[{"OBJECT_NAME":"STARLINK-36568","OBJECT_ID":"2026-040C","EPOCH":"2026-03-09T22:00:01.999584","MEAN_MOTION":16.0523614,"ECCENTRICITY":8.66e-5,"INCLINATION":97.2778,"RA_OF_ASC_NODE":17.1138,"ARG_OF_PERICENTER":88.8464,"MEAN_ANOMALY":267.6227,"EPHEMERIS_TYPE":0,"CLASSIFICATION_TYPE":"U","NORAD_CAT_ID":68017,"ELEMENT_SET_NO":999,"REV_AT_EPOCH":246,"BSTAR":-0.0017020293,"MEAN_MOTION_DOT":-0.01166094,"MEAN_MOTION_DDOT":0.00046294541},{"OBJECT_NAME":"OBJECT U","OBJECT_ID":"2026-042U","EPOCH":"2026-03-09T18:00:02.000160","MEAN_MOTION":16.02948582,"ECCENTRICITY":7.507e-5,"INCLINATION":53.1605,"RA_OF_ASC_NODE":194.9724,"ARG_OF_PERICENTER":60.9678,"MEAN_ANOMALY":5.2255,"EPHEMERIS_TYPE":0,"CLASSIFICATION_TYPE":"U","NORAD_CAT_ID":68087,"ELEMENT_SET_NO":999,"REV_AT_EPOCH":206,"BSTAR":-0.0020606673,"MEAN_MOTION_DOT":-0.01283275,"MEAN_MOTION_DDOT":0.00053961243}]
